{"fetched_at":"2026-03-29T16:36:15Z","count":15609,"tles":[{"name":"LEMUR-2-KARENDARRELL","line1":"1 64841U 25135BU  26087.84306751  .00011823  00000+0  98305-3 0  9998","line2":"2 64841  97.7585 204.2769 0008192 134.9296 225.2593 14.98837874 41978","category":"Other"}]}